1 36095U 09063A   22257.49471168 -.00000031  00000-0  31478-4 0  9991
2 36095  67.1503 348.1540 0003352 278.2629  81.8075 13.96798375653732
1 36095U 09063A   22257.56631501 -.00000032  00000-0  31006-4 0  9996
2 36095  67.1503 347.9799 0003358 278.3186  81.7518 13.96798369653554
1 36095U 09063A   22257.63791833 -.00000034  00000-0  29953-4 0  9999
2 36095  67.1503 347.8059 0003362 278.3964  81.6739 13.96798370653568
1 36095U 09063A   22257.63791833 -.00000034  00000-0  29953-4 0  9999
2 36095  67.1503 347.8059 0003362 278.3964  81.6739 13.96798370653759
1 36095U 09063A   22258.06753820 -.00000032  00000-0  31408-4 0  9997
2 36095  67.1503 346.7616 0003367 278.6723  81.3981 13.96798441653819
1 36095U 09063A   22258.49715808 -.00000030  00000-0  32366-4 0  9990
2 36095  67.1503 345.7173 0003373 278.8990  81.1713 13.96798483653683
1 36095U 09063A   22258.64036472 -.00000028  00000-0  34291-4 0  9996
2 36095  67.1503 345.3692 0003373 279.0678  81.0024 13.96798507653705
1 36095U 09063A   22258.64036472 -.00000028  00000-0  34291-4 0  9996
2 36095  67.1503 345.3692 0003373 279.0678  81.0024 13.96798507653895
1 36095U 09063A   22258.92677797 -.00000028  00000-0  34277-4 0  9992
2 36095  67.1503 344.6730 0003381 279.3057  80.7645 13.96798535653934
1 36095U 09063A   22259.49960448 -.00000023  00000-0  37663-4 0  9990
2 36095  67.1502 343.2807 0003394 279.5911  80.4790 13.96798583653827
1 36095U 09063A   22259.49960448 -.00000023  00000-0  37663-4 0  9990
2 36095  67.1502 343.2807 0003394 279.5911  80.4790 13.96798583654019
1 36095U 09063A   22259.92922437 -.00000024  00000-0  37159-4 0  9995
2 36095  67.1502 342.2364 0003403 279.9165  80.1536 13.96798608654071
1 36095U 09063A   22260.50205085 -.00000023  00000-0  37549-4 0  9996
2 36095  67.1501 340.8440 0003413 280.1706  79.8994 13.96798639653969
1 36095U 09063A   22260.50205085 -.00000023  00000-0  37549-4 0  9996
2 36095  67.1501 340.8440 0003413 280.1706  79.8994 13.96798639654151
1 36095U 09063A   22260.64525747 -.00000021  00000-0  38882-4 0  9990
2 36095  67.1500 340.4959 0003412 280.2997  79.7703 13.96798663653987
1 36095U 09063A   22260.64525747 -.00000021  00000-0  38882-4 0  9990
2 36095  67.1500 340.4959 0003412 280.2997  79.7703 13.96798663654179
1 36095U 09063A   22260.93167072 -.00000023  00000-0  37324-4 0  9997
2 36095  67.1500 339.7997 0003419 280.8775  79.1925 13.96798690654214
1 36095U 09063A   22261.50449710 -.00000026  00000-0  35613-4 0  9995
2 36095  67.1499 338.4073 0003425 280.9917  79.0782 13.96798738654109
1 36095U 09063A   22261.50449710 -.00000026  00000-0  35613-4 0  9995
2 36095  67.1499 338.4073 0003425 280.9917  79.0782 13.96798738654299
1 36095U 09063A   22261.57610040 -.00000027  00000-0  34948-4 0  9999
2 36095  67.1499 338.2332 0003426 281.0597  79.0102 13.96798741654113
1 36095U 09063A   22261.57610040 -.00000027  00000-0  34948-4 0  9999
2 36095  67.1499 338.2332 0003426 281.0597  79.0102 13.96798741654304
1 36095U 09063A   22262.14892673 -.00000033  00000-0  30654-4 0  9994
2 36095  67.1498 336.8408 0003440 281.4567  78.6131 13.96798812654382
1 36095U 09063A   22262.43533983 -.00000032  00000-0  30762-4 0  9991
2 36095  67.1498 336.1446 0003453 281.6250  78.4447 13.96798859654426
1 36095U 09063A   22262.50694312 -.00000033  00000-0  30529-4 0  9995
2 36095  67.1498 335.9706 0003452 281.6254  78.4443 13.96798863654246
1 36095U 09063A   22262.50694312 -.00000033  00000-0  30529-4 0  9995
2 36095  67.1498 335.9706 0003452 281.6254  78.4443 13.96798863654437
1 36095U 09063A   22263.15137273 -.00000041  00000-0  24742-4 0  9994
2 36095  67.1497 334.4041 0003466 282.1460  77.9237 13.96798917654527
1 36095U 09063A   22263.50938916 -.00000044  00000-0  22420-4 0  9990
2 36095  67.1496 333.5338 0003472 282.1903  77.8793 13.96798920654388
1 36095U 09063A   22263.50938916 -.00000044  00000-0  22420-4 0  9990
2 36095  67.1496 333.5338 0003472 282.1903  77.8793 13.96798920654579
